{"type": "FeatureCollection", "features": [ {"type": "Feature", "properties": {"norad_id": 31752, "name": "FENGYUN 1C DEB", "group": "fengyun-1c-debris", "lat": 72.80346651913904, "lon": 27.949865755241262, "alt_km": 943.2158146489264, "timestamp": "2025-12-11T20:41:15.364876+00:00", "meta": {"OBJECT_NAME": "FENGYUN 1C DEB", "OBJECT_ID": "1999-025CFB", "EPOCH": "2025-12-11T11:43:13.870272", "MEAN_MOTION": 13.93031524, "ECCENTRICITY": 0.03558955, "INCLINATION": 98.9781, "RA_OF_ASC_NODE": 58.305, "ARG_OF_PERICENTER": 337.1774, "MEAN_ANOMALY": 21.3897, "EPHEMERIS_TYPE": 0, "CLASSIFICATION_TYPE": "U", "NORAD_CAT_ID": 31752, "ELEMENT_SET_NO": 999, "REV_AT_EPOCH": 93573, "BSTAR": 0.002163174, "MEAN_MOTION_DOT": 4.698e-05, "MEAN_MOTION_DDOT": 0}, "tle": {"line1": "1 31752U 99025CFB 25345.48835498  .00004698  00000+0  21632-2 0  9993", "line2": "2 31752  98.9781  58.3050 0355895 337.1774  21.3897 13.93031524935738"}}, "geometry": {"type": "Point", "coordinates": [27.949865755241262, 72.80346651913904]}}, {"type": "Feature", "properties": {"norad_id": 31753, "name": "FENGYUN 1C DEB", "group": "fengyun-1c-debris", "lat": -75.08592828585638, "lon": 164.22690834194944, "alt_km": 818.5009195418052, "timestamp": "2025-12-11T20:41:15.364887+00:00", "meta": {"OBJECT_NAME": "FENGYUN 1C DEB", "OBJECT_ID": "1999-025CFC", "EPOCH": "2025-12-10T01:18:33.226272", "MEAN_MOTION": 14.18631258, "ECCENTRICITY": 0.01589595, "INCLINATION": 98.6327, "RA_OF_ASC_NODE": 17.2437, "ARG_OF_PERICENTER": 181.5018, "MEAN_ANOMALY": 208.9772, "EPHEMERIS_TYPE": 0, "CLASSIFICATION_TYPE": "U", "NORAD_CAT_ID": 31753, "ELEMENT_SET_NO": 999, "REV_AT_EPOCH": 95981, "BSTAR": 0.00046159825, "MEAN_MOTION_DOT": 1.042e-05, "MEAN_MOTION_DDOT": 0}, "tle": {"line1": "1 31753U 99025CFC 25344.05455123  .00001042  00000+0  46160-3 0  9993", "line2": "2 31753  98.6327  17.2437 0158959 181.5018 208.9772 14.18631258959817"}}, "geometry": {"type": "Point", "coordinates": [164.22690834194944, -75.08592828585638]}}, {"type": "Feature", "properties": {"norad_id": 31754, "name": "FENGYUN 1C DEB", "group": "fengyun-1c-debris", "lat": -79.84303003801644, "lon": 13.809980652056566, "alt_km": 737.7310178212329, "timestamp": "2025-12-11T20:41:15.364897+00:00", "meta": {"OBJECT_NAME": "FENGYUN 1C DEB", "OBJECT_ID": "1999-025CFD", "EPOCH": "2025-12-11T04:25:58.976832", "MEAN_MOTION": 14.42242018, "ECCENTRICITY": 0.00491724, "INCLINATION": 99.0403, "RA_OF_ASC_NODE": 310.3856, "ARG_OF_PERICENTER": 222.5243, "MEAN_ANOMALY": 137.2132, "EPHEMERIS_TYPE": 0, "CLASSIFICATION_TYPE": "U", "NORAD_CAT_ID": 31754, "ELEMENT_SET_NO": 999, "REV_AT_EPOCH": 96967, "BSTAR": 0.0015877861, "MEAN_MOTION_DOT": 5.265e-05, "MEAN_MOTION_DDOT": 0}, "tle": {"line1": "1 31754U 99025CFD 25345.18471038  .00005265  00000+0  15878-2 0  9994", "line2": "2 31754  99.0403 310.3856 0049172 222.5243 137.2132 14.42242018969670"}}, "geometry": {"type": "Point", "coordinates": [13.809980652056566, -79.84303003801644]}}, {"type": "Feature", "properties": {"norad_id": 31757, "name": "FENGYUN 1C DEB", "group": "fengyun-1c-debris", "lat": 27.988420513994935, "lon": 3.2521757474872715, "alt_km": 779.2402422966325, "timestamp": "2025-12-11T20:41:15.364907+00:00", "meta": {"OBJECT_NAME": "FENGYUN 1C DEB", "OBJECT_ID": "1999-025CFG", "EPOCH": "2025-12-10T07:01:55.738272", "MEAN_MOTION": 14.07915605, "ECCENTRICITY": 0.0217958, "INCLINATION": 98.7682, "RA_OF_ASC_NODE": 6.432, "ARG_OF_PERICENTER": 90.9407, "MEAN_ANOMALY": 271.6741, "EPHEMERIS_TYPE": 0, "CLASSIFICATION_TYPE": "U", "NORAD_CAT_ID": 31757, "ELEMENT_SET_NO": 999, "REV_AT_EPOCH": 63847, "BSTAR": 0.00035867, "MEAN_MOTION_DOT": 7.16e-06, "MEAN_MOTION_DDOT": 0}, "tle": {"line1": "1 31757U 99025CFG 25344.29300623  .00000716  00000+0  35867-3 0  9996", "line2": "2 31757  98.7682   6.4320 0217958  90.9407 271.6741 14.07915605638475"}}, "geometry": {"type": "Point", "coordinates": [3.2521757474872715, 27.988420513994935]}}, {"type": "Feature", "properties": {"norad_id": 31758, "name": "FENGYUN 1C DEB", "group": "fengyun-1c-debris", "lat": 13.810079602747203, "lon": 176.98096945393078, "alt_km": 680.2269828060262, "timestamp": "2025-12-11T20:41:15.364917+00:00", "meta": {"OBJECT_NAME": "FENGYUN 1C DEB", "OBJECT_ID": "1999-025CFH", "EPOCH": "2025-12-09T11:19:45.178752", "MEAN_MOTION": 14.418924, "ECCENTRICITY": 0.03185097, "INCLINATION": 98.0605, "RA_OF_ASC_NODE": 352.7233, "ARG_OF_PERICENTER": 100.1746, "MEAN_ANOMALY": 263.5525, "EPHEMERIS_TYPE": 0, "CLASSIFICATION_TYPE": "U", "NORAD_CAT_ID": 31758, "ELEMENT_SET_NO": 999, "REV_AT_EPOCH": 94153, "BSTAR": 0.0026701195, "MEAN_MOTION_DOT": 0.00016114, "MEAN_MOTION_DDOT": 0}, "tle": {"line1": "1 31758U 99025CFH 25343.47205068  .00016114  00000+0  26701-2 0  9998", "line2": "2 31758  98.0605 352.7233 0318509 100.1746 263.5525 14.41892400941537"}}, "geometry": {"type": "Point", "coordinates": [176.98096945393078, 13.810079602747203]}}, {"type": "Feature", "properties": {"norad_id": 31760, "name": "FENGYUN 1C DEB", "group": "fengyun-1c-debris", "lat": -18.39826951445567, "lon": -99.63232390628848, "alt_km": 758.3118312746146, "timestamp": "2025-12-11T20:41:15.364934+00:00", "meta": {"OBJECT_NAME": "FENGYUN 1C DEB", "OBJECT_ID": "1999-025CFK", "EPOCH": "2025-12-10T11:51:31.582656", "MEAN_MOTION": 14.30163927, "ECCENTRICITY": 0.00527424, "INCLINATION": 99.2539, "RA_OF_ASC_NODE": 82.0228, "ARG_OF_PERICENTER": 203.6838, "MEAN_ANOMALY": 156.1914, "EPHEMERIS_TYPE": 0, "CLASSIFICATION_TYPE": "U", "NORAD_CAT_ID": 31760, "ELEMENT_SET_NO": 999, "REV_AT_EPOCH": 96100, "BSTAR": 0.0011974016, "MEAN_MOTION_DOT": 3.098e-05, "MEAN_MOTION_DDOT": 0}, "tle": {"line1": "1 31760U 99025CFK 25344.49411554  .00003098  00000+0  11974-2 0  9996", "line2": "2 31760  99.2539  82.0228 0052742 203.6838 156.1914 14.30163927961007"}}, "geometry": {"type": "Point", "coordinates": [-99.63232390628848, -18.39826951445567]}}, {"type": "Feature", "properties": {"norad_id": 31761, "name": "FENGYUN 1C DEB", "group": "fengyun-1c-debris", "lat": 49.60508690820895, "lon": 40.06585399338493, "alt_km": 1117.7604275284793, "timestamp": "2025-12-11T20:41:15.364946+00:00", "meta": {"OBJECT_NAME": "FENGYUN 1C DEB", "OBJECT_ID": "1999-025CFL", "EPOCH": "2025-12-10T08:05:44.697696", "MEAN_MOTION": 14.03384413, "ECCENTRICITY": 0.04726643, "INCLINATION": 98.6334, "RA_OF_ASC_NODE": 208.3272, "ARG_OF_PERICENTER": 270.2187, "MEAN_ANOMALY": 84.4846, "EPHEMERIS_TYPE": 0, "CLASSIFICATION_TYPE": "U", "NORAD_CAT_ID": 31761, "ELEMENT_SET_NO": 999, "REV_AT_EPOCH": 58077, "BSTAR": 0.0032051311, "MEAN_MOTION_DOT": 0.00013668, "MEAN_MOTION_DDOT": 0}, "tle": {"line1": "1 31761U 99025CFL 25344.33732289  .00013668  00000+0  32051-2 0  9994", "line2": "2 31761  98.6334 208.3272 0472664 270.2187  84.4846 14.03384413580775"}}, "geometry": {"type": "Point", "coordinates": [40.06585399338493, 49.60508690820895]}}, {"type": "Feature", "properties": {"norad_id": 31763, "name": "FENGYUN 1C DEB", "group": "fengyun-1c-debris", "lat": -34.49837491874946, "lon": 100.29697726916797, "alt_km": 1173.6468032200464, "timestamp": "2025-12-11T20:41:15.364956+00:00", "meta": {"OBJECT_NAME": "FENGYUN 1C DEB", "OBJECT_ID": "1999-025CFN", "EPOCH": "2025-12-11T06:53:47.548032", "MEAN_MOTION": 13.5032407, "ECCENTRICITY": 0.05470557, "INCLINATION": 98.5205, "RA_OF_ASC_NODE": 93.8888, "ARG_OF_PERICENTER": 73.3637, "MEAN_ANOMALY": 345.9946, "EPHEMERIS_TYPE": 0, "CLASSIFICATION_TYPE": "U", "NORAD_CAT_ID": 31763, "ELEMENT_SET_NO": 999, "REV_AT_EPOCH": 90986, "BSTAR": 0.0011181748, "MEAN_MOTION_DOT": 1.799e-05, "MEAN_MOTION_DDOT": 0}, "tle": {"line1": "1 31763U 99025CFN 25345.28735588  .00001799  00000+0  11182-2 0  9990", "line2": "2 31763  98.5205  93.8888 0547055  73.3637 345.9946 13.50324070909867"}}, "geometry": {"type": "Point", "coordinates": [100.29697726916797, -34.49837491874946]}}, {"type": "Feature", "properties": {"norad_id": 31766, "name": "FENGYUN 1C DEB", "group": "fengyun-1c-debris", "lat": 35.783047341353594, "lon": 170.13378567634598, "alt_km": 919.285599932181, "timestamp": "2025-12-11T20:41:15.364967+00:00", "meta": {"OBJECT_NAME": "FENGYUN 1C DEB", "OBJECT_ID": "1999-025CFR", "EPOCH": "2025-12-05T17:02:42.241632", "MEAN_MOTION": 14.0527359, "ECCENTRICITY": 0.00736647, "INCLINATION": 98.8158, "RA_OF_ASC_NODE": 337.7312, "ARG_OF_PERICENTER": 310.9952, "MEAN_ANOMALY": 48.486, "EPHEMERIS_TYPE": 0, "CLASSIFICATION_TYPE": "U", "NORAD_CAT_ID": 31766, "ELEMENT_SET_NO": 999, "REV_AT_EPOCH": 63987, "BSTAR": 0.00041011226, "MEAN_MOTION_DOT": 6.36e-06, "MEAN_MOTION_DDOT": 0}, "tle": {"line1": "1 31766U 99025CFR 25339.71021113  .00000636  00000+0  41011-3 0  9990", "line2": "2 31766  98.8158 337.7312 0073664 310.9952  48.4860 14.05273590639874"}}, "geometry": {"type": "Point", "coordinates": [170.13378567634598, 35.783047341353594]}}, {"type": "Feature", "properties": {"norad_id": 31767, "name": "FENGYUN 1C DEB", "group": "fengyun-1c-debris", "lat": 60.403972636704125, "lon": -148.55399063904508, "alt_km": 849.5439573437579, "timestamp": "2025-12-11T20:41:15.364976+00:00", "meta": {"OBJECT_NAME": "FENGYUN 1C DEB", "OBJECT_ID": "1999-025CFS", "EPOCH": "2025-12-11T14:00:31.889952", "MEAN_MOTION": 14.04952933, "ECCENTRICITY": 0.00419445, "INCLINATION": 98.8219, "RA_OF_ASC_NODE": 15.3078, "ARG_OF_PERICENTER": 73.1861, "MEAN_ANOMALY": 78.0636, "EPHEMERIS_TYPE": 0, "CLASSIFICATION_TYPE": "U", "NORAD_CAT_ID": 31767, "ELEMENT_SET_NO": 999, "REV_AT_EPOCH": 94809, "BSTAR": 0.000100481, "MEAN_MOTION_DOT": 1.2e-06, "MEAN_MOTION_DDOT": 0}, "tle": {"line1": "1 31767U 99025CFS 25345.58370243  .00000120  00000+0  10048-3 0  9998", "line2": "2 31767  98.8219  15.3078 0041944  73.1861  78.0636 14.04952933948095"}}, "geometry": {"type": "Point", "coordinates": [-148.55399063904508, 60.403972636704125]}}]}